{
  "type": "FeatureCollection",
  "features": [
    {
      "type": "Feature",
      "properties": { "name": "Départ" },
      "geometry": {
        "type": "Point",
        "coordinates": [129.08841790649618, 35.12915419555454]
      },
      "id": 0
    },
    {
      "type": "Feature",
      "properties": { "name": "Recyclerie" },
      "geometry": { "type": "Point", "coordinates": [129.090342, 35.13021] }
    },
    {
      "type": "Feature",
      "properties": { "name": "Pharmacie" },
      "geometry": { "type": "Point", "coordinates": [129.088532, 35.133147] },
      "id": 2
    },
    {
      "type": "Feature",
      "properties": { "name": "GS25 (Recharge SD)" },
      "geometry": { "type": "Point", "coordinates": [129.094523, 35.13473] },
      "id": 3
    },
    {
      "type": "Feature",
      "properties": { "name": "Entrepôt" },
      "geometry": { "type": "Point", "coordinates": [129.092408, 35.13419] },
      "id": 4
    },
    {
      "type": "Feature",
      "properties": { "name": "Immeuble" },
      "geometry": { "type": "Point", "coordinates": [129.091712, 35.133072] },
      "id": 5
    },
    {
      "type": "Feature",
      "properties": { "name": "Arrivée (Recyclerie)" },
      "geometry": { "type": "Point", "coordinates": [129.090342, 35.13021] },
      "id": 6
    },
    {
      "type": "Feature",
      "properties": {},
      "geometry": {
        "coordinates": [
          [129.08841586825213, 35.12916103941778],
          [129.08808960803003, 35.12966987743147],
          [129.0892701704014, 35.13019212126788],
          [129.09033517709963, 35.13017623232548],
          [129.08966498668093, 35.13018626118644],
          [129.08968024137846, 35.1322358941656],
          [129.08855468077286, 35.13315192538141],
          [129.0885304547428, 35.13315827331702],
          [129.0881270657316, 35.133397512039],
          [129.08801389247247, 35.134844493577205],
          [129.09191346057435, 35.13503388738843],
          [129.09192927687002, 35.13455833505928],
          [129.0944941211423, 35.134701597371816],
          [129.09452456485604, 35.13473529429713],
          [129.09460165388305, 35.13467678836665],
          [129.0946267357669, 35.13424926125245],
          [129.09241154096208, 35.13415084687584],
          [129.09240386658257, 35.13419656962388],
          [129.09235182543108, 35.1341492809334],
          [129.09194924586842, 35.134130998136655],
          [129.09201106576154, 35.13306569884044],
          [129.09171856116427, 35.13304868164688],
          [129.09170673008833, 35.133085498201595],
          [129.09160180580005, 35.13304376126696],
          [129.0907287155274, 35.133014532633],
          [129.09005799284762, 35.132727919630995],
          [129.08968295943708, 35.132234705322745],
          [129.08966493691588, 35.13018646076375],
          [129.09033250205903, 35.13017634045811],
          [129.09034005306393, 35.13021517761254]
        ],
        "type": "LineString"
      }
    }
  ]
}
